OBJECT_NAME,OBJECT_ID,EPOCH,MEAN_MOTION,ECCENTRICITY,INCLINATION,RA_OF_ASC_NODE,ARG_OF_PERICENTER,MEAN_ANOMALY,EPHEMERIS_TYPE,CLASSIFICATION_TYPE,NORAD_CAT_ID,ELEMENT_SET_NO,REV_AT_EPOCH,BSTAR,MEAN_MOTION_DOT,MEAN_MOTION_DDOT
CUTE-1 (CO-55),2003-031E,2026-07-12T19:38:00.321792,14.24350634,.0010788,98.6742,202.0549,108.7901,251.4449,0,U,27844,999,19532,.88191E-4,.16E-5,0
CUBESAT XI-IV (CO-57),2003-031J,2026-07-12T12:55:06.299904,14.23633637,.00104483,98.6772,201.4707,126.3839,233.8305,0,U,27848,999,19498,.7534821E-4,.128E-5,0
CUBESAT XI-V,2005-043F,2026-07-11T09:17:30.194592,14.72696464,.00151315,98.3011,348.5214,126.3821,233.8784,0,U,28895,999,10531,.13420163E-3,.804E-5,0
CUTE-1.7+APD II (CO-65),2008-021C,2026-07-12T21:37:43.641120,15.09687806,.0007239,97.8287,175.8607,308.7828,51.2753,0,U,32785,999,98907,.21157E-3,.3342E-4,0
CANX-2,2008-021H,2026-07-12T20:57:51.193152,15.05798438,.0008944,97.8655,174.1555,326.9211,33.1455,0,U,32790,999,98867,.14952E-3,.2103E-4,0
SEEDS II (CO-66),2008-021J,2026-07-12T12:34:23.646720,15.33607267,.00027939,97.7520,192.6480,162.8059,197.3278,0,U,32791,999,99117,.35129186E-3,.11335E-3,0
SWISSCUBE,2009-051B,2026-07-12T05:01:01.202880,14.62527427,.0007715,98.4012,101.5313,127.0520,233.1388,0,U,35932,999,89281,.10865E-3,.502E-5,0
BEESAT-1,2009-051C,2026-07-12T17:03:25.723296,14.61759519,.0005984,98.3939,101.6234,136.3628,223.8047,0,U,35933,999,89291,.88659E-4,.393E-5,0
ITUPSAT1,2009-051E,2026-07-11T23:17:18.975264,14.60475983,.0007861,98.4023,100.0372,152.4089,207.7529,0,U,35935,999,89235,.90105677E-4,.388E-5,0
TISAT 1,2010-035E,2026-07-12T18:47:20.833728,15.32674274,.0004317,98.0706,142.6231,124.7217,235.4430,0,U,36799,999,87162,.46922E-3,.14733E-3,0
STRAND-1,2013-009E,2026-07-12T11:13:41.134080,14.37177891,.00092621,98.3932,13.0813,148.5894,211.5848,0,U,39090,999,70069,.64298601E-4,.149E-5,0
BRITE-AUSTRIA,2013-009F,2026-07-12T11:48:01.125216,14.36551807,.00106113,98.4006,12.3025,158.3879,201.7757,0,U,39091,999,70068,.43656296E-4,.86E-6,0
NEE-01 PEGASO,2013-018B,2026-07-12T20:31:08.501664,14.93783456,.001369,98.1249,338.8594,81.1402,279.1367,0,U,39151,999,71453,.10464E-3,.1049E-4,0
POPACS 2,2013-055E,2026-07-12T04:47:55.187520,14.91934936,.04151763,80.9921,115.5530,113.4876,251.0542,0,U,39269,999,66694,.22032605E-3,.13503E-3,-.908857E-6
POPACS 3,2013-055F,2026-07-12T11:16:54.075648,14.56613622,.05491322,80.9985,201.7622,352.9872,6.3847,0,U,39270,999,64223,.20828069E-3,.8784E-4,0
ZACUBE-1 (TSHEPISOSAT),2013-066B,2026-07-12T19:14:44.693088,15.01322390,.0043887,97.8010,156.2656,162.8946,197.3769,0,U,39417,999,68457,.10312E-3,.129E-4,0
WNISAT-1,2013-066H,2026-07-12T09:31:06.173472,14.58116222,.01637073,97.7230,340.7674,152.0843,208.9262,0,U,39423,999,67040,.13332321E-3,.69E-5,0
TRITON-1,2013-066M,2026-07-12T19:43:30.938304,14.81789015,.0090385,97.8227,103.0438,149.7768,210.8703,0,U,39427,999,67788,.93684E-4,.737E-5,0
GOMX-1,2013-066Q,2026-07-12T18:54:53.180064,14.69539412,.0128492,97.6477,32.6355,355.9571,4.0586,0,U,39430,999,67367,.13621E-3,.865E-5,0
CUBEBUG-2 (LO-74),2013-066AA,2026-07-12T20:25:25.434048,14.93957370,.0055957,97.8909,142.9428,303.3134,56.2734,0,U,39440,999,68082,.17551E-3,.1863E-4,0
NEE-02 KRYSAOR,2013-066AB,2026-07-12T18:50:29.878656,14.86733490,.0065625,97.8894,132.8197,347.2366,12.7185,0,U,39441,999,68000,.15406E-3,.1365E-4,0
FUNCUBE-1 (AO-73),2013-066AE,2026-07-11T21:54:09.783072,15.09793381,.0037972,97.8287,164.8814,118.2418,242.2652,0,U,39444,999,68339,.24262E-3,.3917E-4,0
UWE-3,2013-066AG,2026-07-12T19:32:08.748096,14.97190018,.004751,97.8701,150.0656,232.8178,126.8701,0,U,39446,999,68141,.16916E-3,.1937E-4,0
BRITE-CA1 (TORONTO),2014-033L,2026-07-11T20:05:46.288320,14.72718584,.00781937,97.9767,321.3152,197.0405,162.8175,0,U,40020,999,64584,.93137253E-4,.569E-5,0
DUCHIFAT-1,2014-033M,2026-07-12T16:27:26.176032,15.70510170,.0002165,98.0440,256.5455,257.9613,102.1405,0,U,40021,999,65974,.89146E-3,.110396E-2,0
NANOSATC-BR1,2014-033Q,2026-07-12T13:12:06.652800,15.32271898,.0005323,98.0714,228.1994,102.2683,257.9153,0,U,40024,999,65786,.35481E-3,.10975E-3,0
QB50P1,2014-033R,2026-07-12T12:29:54.904704,15.18640557,.00102199,98.0964,206.4495,132.7489,227.4606,0,U,40025,999,65687,.25721199E-3,.5256E-4,0
QB50P2,2014-033Y,2026-07-12T10:58:14.755872,15.15485152,.00093557,98.0759,191.9172,91.3787,268.8515,0,U,40032,999,65649,.21528358E-3,.4004E-4,0
PERSEUS-M2,2014-033AD,2026-07-12T19:43:47.446752,14.95586940,.0010709,97.9968,144.8865,207.0473,153.0190,0,U,40037,999,65461,.14689E-3,.157E-4,0
PERSEUS-M1,2014-033AF,2026-07-12T19:01:53.947200,14.95709687,.0010778,97.9651,138.3475,204.8282,155.2421,0,U,40039,999,65446,.11974E-3,.1273E-4,0
